NORAD_CAT_ID,OBJECT_NAME,OBJECT_TYPE,EPOCH,MEAN_MOTION,ECCENTRICITY,INCLINATION,RA_OF_ASC_NODE,ARG_OF_PERICENTER,MEAN_ANOMALY,BSTAR,MEAN_MOTION_DOT,MEAN_MOTION_DDOT,TLE_LINE0,TLE_LINE1,TLE_LINE2,SEMIMAJOR_AXIS,PERIOD,APOGEE,PERIGEE,DECAYED
54091.0,STARLINK-5221,PAYLOAD,2024-05-05 04:27:54,15.08840028,0.0001366,53.216,117.1919,90.476,269.6388,4.7667e-05,4.71e-06,0.0,0 STARLINK-5221,1 54091U 22136AS  24126.18605120  .00000471  00000-0  47667-4 0  9997,2 54091  53.2160 117.1919 0001366  90.4760 269.6388 15.08840028 85785,6917.88,95.438,540.69,538.8,0.0
54091.0,STARLINK-5221,PAYLOAD,2024-05-05 06:03:17,15.08840178,0.0001356,53.2159,116.8949,88.3725,271.7423,4.9966e-05,5.07e-06,0.0,0 STARLINK-5221,1 54091U 22136AS  24126.25229108  .00000507  00000-0  49966-4 0  9997,2 54091  53.2159 116.8949 0001356  88.3725 271.7423 15.08840178 85328,6917.88,95.438,540.683,538.807,0.0
54091.0,STARLINK-5221,PAYLOAD,2024-05-06 05:54:04,15.08844349,0.0001355,53.2167,112.4342,86.7094,273.4053,0.00019136,2.759e-05,0.0,0 STARLINK-5221,1 54091U 22136AS  24127.24588581  .00002759  00000-0  19136-3 0  9996,2 54091  53.2167 112.4342 0001355  86.7094 273.4053 15.08844349 85946,6917.867,95.437,540.669,538.795,0.0
54091.0,STARLINK-5221,PAYLOAD,2024-05-06 09:04:50,15.08847626,0.0001348,53.2167,111.8393,86.2803,273.8344,0.0001821,2.612e-05,0.0,0 STARLINK-5221,1 54091U 22136AS  24127.37836399  .00002612  00000-0  18210-3 0  9993,2 54091  53.2167 111.8393 0001348  86.2803 273.8344 15.08847626 85498,6917.857,95.437,540.655,538.79,0.0
54091.0,STARLINK-5221,PAYLOAD,2024-05-06 15:26:23,15.08843934,0.0001326,53.2166,110.6501,85.2378,274.8765,0.00014219,1.976e-05,0.0,0 STARLINK-5221,1 54091U 22136AS  24127.64332794  .00001976  00000-0  14219-3 0  9990,2 54091  53.2166 110.6501 0001326  85.2378 274.8765 15.08843934 85538,6917.868,95.437,540.651,538.816,0.0
54091.0,STARLINK-5221,PAYLOAD,2024-05-07 05:44:51,15.08846013,0.0001336,53.2164,107.9741,90.5174,269.5971,0.00010073,1.316e-05,0.0,0 STARLINK-5221,1 54091U 22136AS  24128.23948657  .00001316  00000-0  10073-3 0  9999,2 54091  53.2164 107.9741 0001336  90.5174 269.5971 15.08846013 86098,6917.862,95.437,540.651,538.803,0.0
54091.0,STARLINK-5221,PAYLOAD,2024-05-07 08:55:37,15.08848663,0.0001359,53.2165,107.3791,90.4347,269.68,0.00010054,1.313e-05,0.0,0 STARLINK-5221,1 54091U 22136AS  24128.37196457  .00001313  00000-0  10054-3 0  9993,2 54091  53.2165 107.3791 0001359  90.4347 269.6800 15.08848663 85649,6917.854,95.437,540.659,538.779,0.0
54091.0,STARLINK-5221,PAYLOAD,2024-05-07 15:17:10,15.08839963,0.0001501,53.2162,106.1889,81.4913,278.6249,1.6256e-05,-2.9e-07,0.0,0 STARLINK-5221,1 54091U 22136AS  24128.63693205 -.00000029  00000-0  16256-4 0  9990,2 54091  53.2162 106.1889 0001501  81.4913 278.6249 15.08839963 86156,6917.881,95.438,540.784,538.707,0.0
54091.0,STARLINK-5221,PAYLOAD,2024-05-08 05:35:39,15.08835412,0.0001547,53.2174,103.5157,96.4219,263.6949,-9.4846e-05,-1.797e-05,0.0,0 STARLINK-5221,1 54091U 22136AS  24129.23309986 -.00001797  00000-0 -94846-4 0  9992,2 54091  53.2174 103.5157 0001547  96.4219 263.6949 15.08835412 86249,6917.894,95.438,540.83,538.689,0.0
54091.0,STARLINK-5221,PAYLOAD,2024-05-08 07:11:02,15.08836034,0.0001574,53.2172,103.2181,94.5144,265.6027,-8.6977e-05,-1.672e-05,0.0,0 STARLINK-5221,1 54091U 22136AS  24129.29933957 -.00001672  00000-0 -86977-4 0  9997,2 54091  53.2172 103.2181 0001574  94.5144 265.6027 15.08836034 85785,6917.893,95.438,540.846,538.669,0.0
54091.0,STARLINK-5221,PAYLOAD,2024-05-08 15:07:58,15.08840713,0.0001629,53.2177,101.7315,94.8978,265.22,-6.1285e-05,-1.263e-05,0.0,0 STARLINK-5221,1 54091U 22136AS  24129.63053645 -.00001263  00000-0 -61285-4 0  9993,2 54091  53.2177 101.7315 0001629  94.8978 265.2200 15.08840713 85835,6917.878,95.438,540.87,538.616,0.0
54091.0,STARLINK-5221,PAYLOAD,2024-05-09 05:26:25,15.08845217,0.0001557,53.2179,99.0548,104.0433,256.0733,0.00021055,3.065e-05,0.0,0 STARLINK-5221,1 54091U 22136AS  24130.22668731  .00003065  00000-0  21055-3 0  9998,2 54091  53.2179  99.0548 0001557 104.0433 256.0733 15.08845217 86399,6917.864,95.437,540.807,538.652,0.0
54091.0,STARLINK-5221,PAYLOAD,2024-05-09 14:58:44,15.08849188,0.0001366,53.2163,97.2694,98.7449,261.3698,3.9644e-05,3.43e-06,0.0,0 STARLINK-5221,1 54091U 22136AS  24130.62412775  .00000343  00000-0  39644-4 0  9997,2 54091  53.2163  97.2694 0001366  98.7449 261.3698 15.08849188 85982,6917.852,95.437,540.662,538.772,0.0
54091.0,STARLINK-5221,PAYLOAD,2024-05-10 05:17:13,15.08840651,0.0001325,53.2179,94.5927,92.08,268.0344,0.00016873,2.398e-05,0.0,0 STARLINK-5221,1 54091U 22136AS  24131.22029441  .00002398  00000-0  16873-3 0  9998,2 54091  53.2179  94.5927 0001325  92.0800 268.0344 15.08840651 86542,6917.878,95.438,540.66,538.827,0.0
54091.0,STARLINK-5221,PAYLOAD,2024-05-10 06:52:36,15.08843837,0.0001358,53.2178,94.2946,91.7942,268.3206,0.00017727,2.535e-05,0.0,0 STARLINK-5221,1 54091U 22136AS  24131.28653222  .00002535  00000-0  17727-3 0  9996,2 54091  53.2178  94.2946 0001358  91.7942 268.3206 15.08843837 86086,6917.869,95.437,540.673,538.794,0.0
54091.0,STARLINK-5221,PAYLOAD,2024-05-10 14:49:32,15.08836686,0.0001416,53.2169,92.8076,90.5602,269.5553,0.00010269,1.347e-05,0.0,0 STARLINK-5221,1 54091U 22136AS  24131.61774052  .00001347  00000-0  10269-3 0  9992,2 54091  53.2169  92.8076 0001416  90.5602 269.5553 15.08836686 86609,6917.891,95.438,540.735,538.776,0.0
54091.0,STARLINK-5221,PAYLOAD,2024-05-11 03:32:37,15.08849867,0.0001675,53.2159,90.4316,86.4185,273.6998,0.00012476,1.699e-05,0.0,0 STARLINK-5221,1 54091U 22136AS  24132.14765268  .00001699  00000-0  12476-3 0  9992,2 54091  53.2159  90.4316 0001675  86.4185 273.6998 15.08849867 86688,6917.85,95.437,540.874,538.556,0.0
54091.0,STARLINK-5221,PAYLOAD,2024-05-11 06:43:22,15.0887759,0.0001434,53.2167,89.8354,122.9385,237.1745,0.00075146,0.00011704,0.0,0 STARLINK-5221,1 54091U 22136AS  24132.28011750  .00011704  00000-0  75146-3 0  9998,2 54091  53.2167  89.8354 0001434 122.9385 237.1745 15.08877590 86704,6917.765,95.435,540.623,538.638,0.0
54091.0,STARLINK-5221,PAYLOAD,2024-05-11 14:40:16,15.08895367,0.0001084,53.2167,88.3489,93.47,266.6416,0.0010254,0.00016094,0.0,0 STARLINK-5221,1 54091U 22136AS  24132.61130568  .00016094  00000-0  10254-2 0  9999,2 54091  53.2167  88.3489 0001084  93.4700 266.6416 15.08895367 86288,6917.711,95.434,540.326,538.826,0.0
54091.0,STARLINK-5221,PAYLOAD,2024-05-12 03:23:24,15.08785662,0.0001336,53.2172,85.9693,94.9742,265.1402,-0.0016665,-0.00026673,0.0,0 STARLINK-5221,1 54091U 22136AS  24133.14126148 -.00026673  00000-0 -16665-2 0  9995,2 54091  53.2172  85.9693 0001336  94.9742 265.1402 15.08785662 86832,6918.046,95.441,540.836,538.987,0.0
54091.0,STARLINK-5221,PAYLOAD,2024-05-12 03:23:25,15.08776986,0.0001153,53.2167,85.9689,97.0382,263.0741,-0.0018899,-0.00030188,0.0,0 STARLINK-5221,1 54091U 22136AS  24133.14126395 -.00030188  00000-0 -18899-2 0  9996,2 54091  53.2167  85.9689 0001153  97.0382 263.0741 15.08776986 86834,6918.073,95.442,540.736,539.14,0.0
54091.0,STARLINK-5221,PAYLOAD,2024-05-12 20:52:41,15.08787883,0.0001399,53.2168,82.6991,92.2565,267.8587,-0.0005073,-8.341e-05,0.0,0 STARLINK-5221,1 54091U 22136AS  24133.86992313 -.00008341  00000-0 -50730-3 0  9993,2 54091  53.2168  82.6991 0001399  92.2565 267.8587 15.08787883 86947,6918.04,95.441,540.873,538.937,0.0
54091.0,STARLINK-5221,PAYLOAD,2024-05-13 03:14:14,15.08814556,0.0001427,53.2171,81.5084,92.973,267.1425,0.0021057,0.0003336,0.0,0 STARLINK-5221,1 54091U 22136AS  24134.13489318  .00033360  00000-0  21057-2 0  9996,2 54091  53.2171  81.5084 0001427  92.9730 267.1425 15.08814556 86981,6917.958,95.439,540.81,538.836,0.0
54091.0,STARLINK-5221,PAYLOAD,2024-05-13 06:25:01,15.08821668,0.0001501,53.2174,80.9138,94.9625,265.1539,0.0020747,0.00032869,0.0,0 STARLINK-5221,1 54091U 22136AS  24134.26737422  .00032869  00000-0  20747-2 0  9990,2 54091  53.2174  80.9138 0001501  94.9625 265.1539 15.08821668 86532,6917.936,95.439,540.84,538.763,0.0
54091.0,STARLINK-5221,PAYLOAD,2024-05-14 03:05:00,15.08873556,0.0001363,53.2174,77.0488,94.8035,265.3113,0.00098065,0.00015368,0.0,0 STARLINK-5221,1 54091U 22136AS  24135.12847633  .00015368  00000-0  98065-3 0  9996,2 54091  53.2174  77.0488 0001363  94.8035 265.3113 15.08873556 86664,6917.778,95.435,540.586,538.7,0.0
54091.0,STARLINK-5221,PAYLOAD,2024-05-15 04:31:08,15.08879877,0.0001509,53.2181,72.292,90.7613,269.3552,0.00049566,7.618e-05,0.0,0 STARLINK-5221,1 54091U 22136AS  24136.18829494  .00007618  00000-0  49566-3 0  9999,2 54091  53.2181  72.2920 0001509  90.7613 269.3552 15.08879877 87292,6917.759,95.435,540.667,538.58,0.0
54091.0,STARLINK-5221,PAYLOAD,2024-05-15 18:49:37,15.08846894,0.0001651,53.2177,69.6141,93.3958,266.7223,-0.00022897,-3.931e-05,0.0,0 STARLINK-5221,1 54091U 22136AS  24136.78445858 -.00003931  00000-0 -22897-3 0  9997,2 54091  53.2177  69.6141 0001651  93.3958 266.7223 15.08846894 87380,6917.859,95.437,540.866,538.582,0.0
54091.0,STARLINK-5221,PAYLOAD,2024-05-16 02:46:32,15.08851537,0.0001518,53.2181,68.1281,88.4146,271.702,2.056e-05,3.9e-07,0.0,0 STARLINK-5221,1 54091U 22136AS  24137.11565736  .00000039  00000-0  20560-4 0  9993,2 54091  53.2181  68.1281 0001518  88.4146 271.7020 15.08851537 86964,6917.845,95.437,540.76,538.66,0.0
54091.0,STARLINK-5221,PAYLOAD,2024-05-16 18:40:24,15.08850838,0.0001545,53.2179,65.1551,78.4246,281.6919,0.00015693,2.211e-05,0.0,0 STARLINK-5221,1 54091U 22136AS  24137.77805658  .00002211  00000-0  15693-3 0  9999,2 54091  53.2179  65.1551 0001545  78.4246 281.6919 15.08850838 87060,6917.847,95.437,540.781,538.643,0.0
54091.0,STARLINK-5221,PAYLOAD,2024-05-17 02:37:19,15.08852246,0.0001444,53.2181,63.6683,88.7316,271.3841,0.00032344,4.865e-05,0.0,0 STARLINK-5221,1 54091U 22136AS  24138.10925312  .00004865  00000-0  32344-3 0  9996,2 54091  53.2181  63.6683 0001444  88.7316 271.3841 15.08852246 87584,6917.843,95.437,540.707,538.709,0.0
